{
  "type": "FeatureCollection",
  "features": [
    {
      "type": "Feature",
      "properties": {
        "norad_id": 30404,
        "name": "FENGYUN 1C DEB",
        "group": "fengyun-1c-debris",
        "lat": 74.11516556230887,
        "lon": 32.29997064386228,
        "alt_km": 1067.3921656593448,
        "timestamp": "2025-12-03T17:47:50.993801+00:00",
        "meta_object_name": "FENGYUN 1C DEB",
        "meta_object_id": "1999-025ADT",
        "meta_epoch": "2025-11-30T17:24:43.426368",
        "meta_mean_motion": 13.34313011,
        "meta_eccentricity": 0.03760074,
        "meta_inclination": 99.8332,
        "meta_ra_of_asc_node": 66.9455,
        "meta_arg_of_pericenter": 165.4409,
        "meta_mean_anomaly": 195.791,
        "meta_ephemeris_type": 0,
        "meta_classification_type": "U",
        "meta_norad_cat_id": 30404,
        "meta_element_set_no": 999,
        "meta_rev_at_epoch": 57876,
        "meta_bstar": 0.0014039979,
        "meta_mean_motion_dot": 1.003e-05,
        "meta_mean_motion_ddot": 0,
        "tle_line1": "1 30404U 99025ADT 25334.72550262  .00001003  00000+0  14040-2 0  9996",
        "tle_line2": "2 30404  99.8332  66.9455 0376007 165.4409 195.7910 13.34313011578769"
      },
      "geometry": {
        "type": "Point",
        "coordinates": [
          32.29997064386228,
          74.11516556230887
        ]
      }
    },
    {
      "type": "Feature",
      "properties": {
        "norad_id": 30405,
        "name": "FENGYUN 1C DEB",
        "group": "fengyun-1c-debris",
        "lat": 16.24863172143022,
        "lon": 69.06626531188398,
        "alt_km": 831.7663905926565,
        "timestamp": "2025-12-03T17:47:50.993811+00:00",
        "meta_object_name": "FENGYUN 1C DEB",
        "meta_object_id": "1999-025ADU",
        "meta_epoch": "2025-12-03T12:45:59.463936",
        "meta_mean_motion": 14.28777367,
        "meta_eccentricity": 0.0051644,
        "meta_inclination": 98.795,
        "meta_ra_of_asc_node": 71.4411,
        "meta_arg_of_pericenter": 179.8816,
        "meta_mean_anomaly": 199.2395,
        "meta_ephemeris_type": 0,
        "meta_classification_type": "U",
        "meta_norad_cat_id": 30405,
        "meta_element_set_no": 999,
        "meta_rev_at_epoch": 97264,
        "meta_bstar": 0.0027383,
        "meta_mean_motion_dot": 6.958e-05,
        "meta_mean_motion_ddot": 0,
        "tle_line1": "1 30405U 99025ADU 25337.53193824  .00006958  00000+0  27383-2 0  9994",
        "tle_line2": "2 30405  98.7950  71.4411 0051644 179.8816 199.2395 14.28777367972648"
      },
      "geometry": {
        "type": "Point",
        "coordinates": [
          69.06626531188398,
          16.24863172143022
        ]
      }
    },
    {
      "type": "Feature",
      "properties": {
        "norad_id": 30406,
        "name": "FENGYUN 1C DEB",
        "group": "fengyun-1c-debris",
        "lat": 73.03700523925892,
        "lon": -160.34922790714592,
        "alt_km": 899.6489343415933,
        "timestamp": "2025-12-03T17:47:50.993821+00:00",
        "meta_object_name": "FENGYUN 1C DEB",
        "meta_object_id": "1999-025ADV",
        "meta_epoch": "2025-12-03T11:16:58.004256",
        "meta_mean_motion": 13.59152794,
        "meta_eccentricity": 0.0282876,
        "meta_inclination": 98.6206,
        "meta_ra_of_asc_node": 229.2345,
        "meta_arg_of_pericenter": 23.8104,
        "meta_mean_anomaly": 161.5572,
        "meta_ephemeris_type": 0,
        "meta_classification_type": "U",
        "meta_norad_cat_id": 30406,
        "meta_element_set_no": 999,
        "meta_rev_at_epoch": 93040,
        "meta_bstar": 0.0032499,
        "meta_mean_motion_dot": 3.075e-05,
        "meta_mean_motion_ddot": 0,
        "tle_line1": "1 30406U 99025ADV 25337.47011579  .00003075  00000+0  32499-2 0  9995",
        "tle_line2": "2 30406  98.6206 229.2345 0282876  23.8104 161.5572 13.59152794930403"
      },
      "geometry": {
        "type": "Point",
        "coordinates": [
          -160.34922790714592,
          73.03700523925892
        ]
      }
    },
    {
      "type": "Feature",
      "properties": {
        "norad_id": 30409,
        "name": "FENGYUN 1C DEB",
        "group": "fengyun-1c-debris",
        "lat": 4.473667580416792,
        "lon": 146.4010160466385,
        "alt_km": 982.1788163933979,
        "timestamp": "2025-12-03T17:47:50.993831+00:00",
        "meta_object_name": "FENGYUN 1C DEB",
        "meta_object_id": "1999-025ADY",
        "meta_epoch": "2025-12-02T10:53:56.760288",
        "meta_mean_motion": 14.03681257,
        "meta_eccentricity": 0.01684982,
        "meta_inclination": 98.472,
        "meta_ra_of_asc_node": 324.5324,
        "meta_arg_of_pericenter": 34.5529,
        "meta_mean_anomaly": 117.5759,
        "meta_ephemeris_type": 0,
        "meta_classification_type": "U",
        "meta_norad_cat_id": 30409,
        "meta_element_set_no": 999,
        "meta_rev_at_epoch": 96285,
        "meta_bstar": 0.00097201892,
        "meta_mean_motion_dot": 1.694e-05,
        "meta_mean_motion_ddot": 0,
        "tle_line1": "1 30409U 99025ADY 25336.45412917  .00001694  00000+0  97202-3 0  9995",
        "tle_line2": "2 30409  98.4720 324.5324 0168498  34.5529 117.5759 14.03681257962857"
      },
      "geometry": {
        "type": "Point",
        "coordinates": [
          146.4010160466385,
          4.473667580416792
        ]
      }
    },
    {
      "type": "Feature",
      "properties": {
        "norad_id": 30411,
        "name": "FENGYUN 1C DEB",
        "group": "fengyun-1c-debris",
        "lat": -80.28368457150205,
        "lon": -49.34474443845959,
        "alt_km": 944.3891247463844,
        "timestamp": "2025-12-03T17:47:50.993841+00:00",
        "meta_object_name": "FENGYUN 1C DEB",
        "meta_object_id": "1999-025AEA",
        "meta_epoch": "2025-12-02T16:37:16.523904",
        "meta_mean_motion": 14.07561356,
        "meta_eccentricity": 0.01217974,
        "meta_inclination": 98.5804,
        "meta_ra_of_asc_node": 247.8028,
        "meta_arg_of_pericenter": 135.3232,
        "meta_mean_anomaly": 225.783,
        "meta_ephemeris_type": 0,
        "meta_classification_type": "U",
        "meta_norad_cat_id": 30411,
        "meta_element_set_no": 999,
        "meta_rev_at_epoch": 95842,
        "meta_bstar": 0.0021509467,
        "meta_mean_motion_dot": 3.843e-05,
        "meta_mean_motion_ddot": 0,
        "tle_line1": "1 30411U 99025AEA 25336.69255236  .00003843  00000+0  21509-2 0  9997",
        "tle_line2": "2 30411  98.5804 247.8028 0121797 135.3232 225.7830 14.07561356958425"
      },
      "geometry": {
        "type": "Point",
        "coordinates": [
          -49.34474443845959,
          -80.28368457150205
        ]
      }
    },
    {
      "type": "Feature",
      "properties": {
        "norad_id": 30413,
        "name": "FENGYUN 1C DEB",
        "group": "fengyun-1c-debris",
        "lat": -38.92841776252058,
        "lon": 17.20671663668962,
        "alt_km": 759.0475901493364,
        "timestamp": "2025-12-03T17:47:50.993851+00:00",
        "meta_object_name": "FENGYUN 1C DEB",
        "meta_object_id": "1999-025AEC",
        "meta_epoch": "2025-12-03T12:17:45.154752",
        "meta_mean_motion": 14.32356186,
        "meta_eccentricity": 0.0046384,
        "meta_inclination": 102.0625,
        "meta_ra_of_asc_node": 206.8349,
        "meta_arg_of_pericenter": 241.1856,
        "meta_mean_anomaly": 237.4395,
        "meta_ephemeris_type": 0,
        "meta_classification_type": "U",
        "meta_norad_cat_id": 30413,
        "meta_element_set_no": 999,
        "meta_rev_at_epoch": 97007,
        "meta_bstar": 0.0033837,
        "meta_mean_motion_dot": 9.195e-05,
        "meta_mean_motion_ddot": 0,
        "tle_line1": "1 30413U 99025AEC 25337.51232818  .00009195  00000+0  33837-2 0  9995",
        "tle_line2": "2 30413 102.0625 206.8349 0046384 241.1856 237.4395 14.32356186970078"
      },
      "geometry": {
        "type": "Point",
        "coordinates": [
          17.20671663668962,
          -38.92841776252058
        ]
      }
    },
    {
      "type": "Feature",
      "properties": {
        "norad_id": 30414,
        "name": "FENGYUN 1C DEB",
        "group": "fengyun-1c-debris",
        "lat": -76.26159251315636,
        "lon": -86.31197513561503,
        "alt_km": 756.0823438739417,
        "timestamp": "2025-12-03T17:47:50.993861+00:00",
        "meta_object_name": "FENGYUN 1C DEB",
        "meta_object_id": "1999-025AED",
        "meta_epoch": "2025-12-02T22:10:09.174720",
        "meta_mean_motion": 14.33915833,
        "meta_eccentricity": 0.00588941,
        "meta_inclination": 99.0803,
        "meta_ra_of_asc_node": 133.6837,
        "meta_arg_of_pericenter": 216.8079,
        "meta_mean_anomaly": 142.9054,
        "meta_ephemeris_type": 0,
        "meta_classification_type": "U",
        "meta_norad_cat_id": 30414,
        "meta_element_set_no": 999,
        "meta_rev_at_epoch": 96946,
        "meta_bstar": 0.0036512477,
        "meta_mean_motion_dot": 0.00010343,
        "meta_mean_motion_ddot": 0,
        "tle_line1": "1 30414U 99025AED 25336.92371730  .00010343  00000+0  36512-2 0  9997",
        "tle_line2": "2 30414  99.0803 133.6837 0058894 216.8079 142.9054 14.33915833969460"
      },
      "geometry": {
        "type": "Point",
        "coordinates": [
          -86.31197513561503,
          -76.26159251315636
        ]
      }
    }
  ]
}